[{"OBJECT_NAME":"FORMOSAT 7-1","OBJECT_ID":"2019-036L","EPOCH":"2026-03-09T01:58:31.546848","MEAN_MOTION":14.96019979,"ECCENTRICITY":0.00010479,"INCLINATION":23.9993,"RA_OF_ASC_NODE":347.0403,"ARG_OF_PERICENTER":84.2943,"MEAN_ANOMALY":275.7677,"EPHEMERIS_TYPE":0,"CLASSIFICATION_TYPE":"U","NORAD_CAT_ID":44349,"ELEMENT_SET_NO":999,"REV_AT_EPOCH":36964,"BSTAR":0.00036541512,"MEAN_MOTION_DOT":4.503e-5,"MEAN_MOTION_DDOT":0},{"OBJECT_NAME":"STARLINK-35959","OBJECT_ID":"2025-280G","EPOCH":"2026-03-09T22:45:14.984640","MEAN_MOTION":14.9832818,"ECCENTRICITY":0.00025614,"INCLINATION":70.0022,"RA_OF_ASC_NODE":333.84,"ARG_OF_PERICENTER":273.0904,"MEAN_ANOMALY":86.9962,"EPHEMERIS_TYPE":0,"CLASSIFICATION_TYPE":"U","NORAD_CAT_ID":66827,"ELEMENT_SET_NO":999,"REV_AT_EPOCH":1611,"BSTAR":0.0002026814,"MEAN_MOTION_DOT":2.326e-5,"MEAN_MOTION_DDOT":0}]
